GLOBAL-2                
1 43812U 18099BG  26068.69955396  .00003970  00000+0  26145-3 0  9998
2 43812  97.3697 109.3280 0007454 127.1924 232.9986 15.08046936396919
STARLINK-3553           
1 51866U 22022Q   26068.10014761 -.00000640  00000+0 -22099-4 0  9993
2 51866  53.2194  11.6232 0001337  87.3208 272.7937 15.08840706223024
