[{"OBJECT_NAME":"GLOBAL-2","OBJECT_ID":"2018-099BG","EPOCH":"2026-03-09T16:47:21.463008","MEAN_MOTION":15.08046936,"ECCENTRICITY":0.00074537,"INCLINATION":97.3697,"RA_OF_ASC_NODE":109.328,"ARG_OF_PERICENTER":127.1924,"MEAN_ANOMALY":232.9986,"EPHEMERIS_TYPE":0,"CLASSIFICATION_TYPE":"U","NORAD_CAT_ID":43812,"ELEMENT_SET_NO":999,"REV_AT_EPOCH":39691,"BSTAR":0.0002614533,"MEAN_MOTION_DOT":3.97e-5,"MEAN_MOTION_DDOT":0},{"OBJECT_NAME":"STARLINK-3553","OBJECT_ID":"2022-022Q","EPOCH":"2026-03-09T02:24:12.753504","MEAN_MOTION":15.08840706,"ECCENTRICITY":0.00013372,"INCLINATION":53.2194,"RA_OF_ASC_NODE":11.6232,"ARG_OF_PERICENTER":87.3208,"MEAN_ANOMALY":272.7937,"EPHEMERIS_TYPE":0,"CLASSIFICATION_TYPE":"U","NORAD_CAT_ID":51866,"ELEMENT_SET_NO":999,"REV_AT_EPOCH":22302,"BSTAR":-2.2099268e-5,"MEAN_MOTION_DOT":-6.4e-6,"MEAN_MOTION_DDOT":0}]
